[{"OBJECT_NAME":"STARLINK-35800","OBJECT_ID":"2025-247AC","EPOCH":"2026-03-09T20:29:26.333664","MEAN_MOTION":15.30218347,"ECCENTRICITY":0.00015197,"INCLINATION":53.1604,"RA_OF_ASC_NODE":190.3322,"ARG_OF_PERICENTER":33.9728,"MEAN_ANOMALY":326.137,"EPHEMERIS_TYPE":0,"CLASSIFICATION_TYPE":"U","NORAD_CAT_ID":66291,"ELEMENT_SET_NO":999,"REV_AT_EPOCH":2111,"BSTAR":0.0014607239,"MEAN_MOTION_DOT":0.0004318,"MEAN_MOTION_DDOT":0},{"OBJECT_NAME":"USA 62","OBJECT_ID":"1990-050D","EPOCH":"2026-03-09T11:26:27.362112","MEAN_MOTION":13.63463645,"ECCENTRICITY":0.08775957,"INCLINATION":63.2946,"RA_OF_ASC_NODE":119.2359,"ARG_OF_PERICENTER":82.7401,"MEAN_ANOMALY":287.2429,"EPHEMERIS_TYPE":0,"CLASSIFICATION_TYPE":"U","NORAD_CAT_ID":20692,"ELEMENT_SET_NO":999,"REV_AT_EPOCH":9111,"BSTAR":0.00035081004,"MEAN_MOTION_DOT":4.907e-5,"MEAN_MOTION_DDOT":0}]
